GLOBALSTAR M024         
1 25883U 99043A   24120.63029433 -.00000090  00000+0 -87861-3 0  9993
2 25883  52.0018 233.7426 0002110 146.1694 226.2934 11.10160744 68935
GLOBALSTAR M027         
1 25884U 99043B   24120.49161036 -.00000069  00000+0 -21492-3 0  9998
2 25884  52.0218 300.3195 0021633  45.2593 314.9957 11.04368360 95533
GLOBALSTAR M054         
1 25885U 99043C   24120.79633288 -.00000069  00000+0  57915-4 0  9994
2 25885  52.0100 136.3100 0004694 189.9410 340.8687 11.39203040 72263
GLOBALSTAR M053         
1 25886U 99043D   24120.58436275 -.00000065  00000+0  10926-3 0  9995
2 25886  51.9997  60.9637 0003560  93.8939  76.8920 11.27654708 72784
GLOBALSTAR M058         
1 25907U 99049A   24120.73058568 -.00000083  00000+0  15659-4 0  9996
2 25907  51.9908 133.1908 0002413 204.5977 155.4742 11.93176493103394
GLOBALSTAR M050         
1 25908U 99049B   24120.91104427 -.00000050  00000+0  43416-3 0  9998
2 25908  51.9971 171.2625 0008972 286.8502 244.1121 12.07433666102993
GLOBALSTAR M033         
1 25909U 99049C   24120.54086378 -.00000061  00000+0  29190-3 0  9997
2 25909  51.9910  72.6792 0011733 137.4115 222.7644 12.20271417485249
GLOBALSTAR M055         
1 25910U 99049D   24120.43292700 -.00000078  00000+0  14153-3 0  9996
2 25910  51.9999 103.8661 0007185 353.7326   6.3434 12.29400219117397
